ION SCV-007             
1 55060U 23001BD  26068.71316433  .00000653  00000+0  98781-4 0  9992
2 55060  97.9119 133.6572 0011115 300.6234  59.3880 14.77452062171569
KUIPER-00089            
1 64834U 25151U   26068.80907248  .00004019  00000+0  55758-3 0  9995
2 64834  51.8998 285.0532 0000796  75.7298 284.3752 14.79804244 35532
