[{"OBJECT_NAME":"ION SCV-007","OBJECT_ID":"2023-001BD","EPOCH":"2026-03-09T17:06:57.398976","MEAN_MOTION":14.77452062,"ECCENTRICITY":0.0011115,"INCLINATION":97.9119,"RA_OF_ASC_NODE":133.6572,"ARG_OF_PERICENTER":300.6234,"MEAN_ANOMALY":59.388,"EPHEMERIS_TYPE":0,"CLASSIFICATION_TYPE":"U","NORAD_CAT_ID":55060,"ELEMENT_SET_NO":999,"REV_AT_EPOCH":17156,"BSTAR":9.8780653e-5,"MEAN_MOTION_DOT":6.53e-6,"MEAN_MOTION_DDOT":0},{"OBJECT_NAME":"KUIPER-00089","OBJECT_ID":"2025-151U","EPOCH":"2026-03-09T19:25:03.862272","MEAN_MOTION":14.79804244,"ECCENTRICITY":7.955e-5,"INCLINATION":51.8998,"RA_OF_ASC_NODE":285.0532,"ARG_OF_PERICENTER":75.7298,"MEAN_ANOMALY":284.3752,"EPHEMERIS_TYPE":0,"CLASSIFICATION_TYPE":"U","NORAD_CAT_ID":64834,"ELEMENT_SET_NO":999,"REV_AT_EPOCH":3553,"BSTAR":0.00055758047,"MEAN_MOTION_DOT":4.019e-5,"MEAN_MOTION_DDOT":0}]
